{
 "generated_at": "2026-07-21T07:32:50Z",
 "sources": [
  {
   "name": "CelesTrak",
   "url": "https://celestrak.org/NORAD/elements/",
   "license": "frei verfügbar; Attribution. Ursprünglich USSPACECOM/Space-Track."
  },
  {
   "name": "GCAT (J. McDowell, planet4589.org)",
   "url": "https://planet4589.org/space/gcat/",
   "license": "CC-BY 4.0"
  }
 ],
 "satellites": [
  {
   "norad": 46497,
   "name": "ICEYE-X6",
   "intl": "2020-068M",
   "group": "sar",
   "gcat": {
    "class": "B",
    "category": "IMG-R",
    "owner": "ICEYE",
    "state": "FI"
   },
   "omm": {
    "OBJECT_NAME": "ICEYE-X6",
    "OBJECT_ID": "2020-068M",
    "EPOCH": "2026-07-20T23:24:10.595232",
    "MEAN_MOTION": 15.04685107,
    "ECCENTRICITY": 0.0006702,
    "INCLINATION": 98.0993,
    "RA_OF_ASC_NODE": 197.2684,
    "ARG_OF_PERICENTER": 352.9692,
    "MEAN_ANOMALY": 7.1437,
    "EPHEMERIS_TYPE": 0,
    "CLASSIFICATION_TYPE": "U",
    "NORAD_CAT_ID": 46497,
    "ELEMENT_SET_NO": 999,
    "REV_AT_EPOCH": 31831,
    "BSTAR": 0.00010491206,
    "MEAN_MOTION_DOT": 0.00001408,
    "MEAN_MOTION_DDOT": 0
   }
  },
  {
   "norad": 66753,
   "name": "ICEYE-X60",
   "intl": "2025-276CR",
   "group": "sar",
   "gcat": {
    "class": "B",
    "category": "IMG-R",
    "owner": "ELKED",
    "state": "GR"
   },
   "omm": {
    "OBJECT_NAME": "ICEYE-X60",
    "OBJECT_ID": "2025-276CR",
    "EPOCH": "2026-07-19T18:28:39.726336",
    "MEAN_MOTION": 15.10668296,
    "ECCENTRICITY": 0.00009859,
    "INCLINATION": 97.4203,
    "RA_OF_ASC_NODE": 272.4701,
    "ARG_OF_PERICENTER": 344.1732,
    "MEAN_ANOMALY": 15.9467,
    "EPHEMERIS_TYPE": 0,
    "CLASSIFICATION_TYPE": "U",
    "NORAD_CAT_ID": 66753,
    "ELEMENT_SET_NO": 999,
    "REV_AT_EPOCH": 3528,
    "BSTAR": 0.00011913217,
    "MEAN_MOTION_DOT": 0.00001909,
    "MEAN_MOTION_DDOT": 0
   }
  },
  {
   "norad": 66754,
   "name": "ICEYE-X61",
   "intl": "2025-276CS",
   "group": "sar",
   "gcat": {
    "class": "B",
    "category": "IMG-R",
    "owner": "ARGUS/MON",
    "state": "PL"
   },
   "omm": {
    "OBJECT_NAME": "ICEYE-X61",
    "OBJECT_ID": "2025-276CS",
    "EPOCH": "2026-07-20T18:23:55.616352",
    "MEAN_MOTION": 15.18627771,
    "ECCENTRICITY": 0.00026241,
    "INCLINATION": 97.4188,
    "RA_OF_ASC_NODE": 274.6307,
    "ARG_OF_PERICENTER": 191.5964,
    "MEAN_ANOMALY": 168.521,
    "EPHEMERIS_TYPE": 0,
    "CLASSIFICATION_TYPE": "U",
    "NORAD_CAT_ID": 66754,
    "ELEMENT_SET_NO": 999,
    "REV_AT_EPOCH": 3551,
    "BSTAR": 0.000083843102,
    "MEAN_MOTION_DOT": 0.00001668,
    "MEAN_MOTION_DDOT": 0
   }
  },
  {
   "norad": 66755,
   "name": "ICEYE-X62",
   "intl": "2025-276CT",
   "group": "sar",
   "gcat": {
    "class": "B",
    "category": "IMG-R",
    "owner": "ICEYE",
    "state": "FI"
   },
   "omm": {
    "OBJECT_NAME": "ICEYE-X62",
    "OBJECT_ID": "2025-276CT",
    "EPOCH": "2026-07-20T17:23:51.641664",
    "MEAN_MOTION": 15.10178558,
    "ECCENTRICITY": 0.00012065,
    "INCLINATION": 97.418,
    "RA_OF_ASC_NODE": 272.8831,
    "ARG_OF_PERICENTER": 204.9538,
    "MEAN_ANOMALY": 155.1633,
    "EPHEMERIS_TYPE": 0,
    "CLASSIFICATION_TYPE": "U",
    "NORAD_CAT_ID": 66755,
    "ELEMENT_SET_NO": 999,
    "REV_AT_EPOCH": 3539,
    "BSTAR": 0.00016100814,
    "MEAN_MOTION_DOT": 0.00002567,
    "MEAN_MOTION_DDOT": 0
   }
  },
  {
   "norad": 67372,
   "name": "ICEYE-X63",
   "intl": "2026-004K",
   "group": "sar",
   "gcat": {
    "class": "B",
    "category": "IMG-R",
    "owner": "ICEYE",
    "state": "FI"
   },
   "omm": {
    "OBJECT_NAME": "ICEYE-X63",
    "OBJECT_ID": "2026-004K",
    "EPOCH": "2026-07-20T21:34:19.416576",
    "MEAN_MOTION": 14.8835562,
    "ECCENTRICITY": 0.0005037,
    "INCLINATION": 97.8017,
    "RA_OF_ASC_NODE": 200.014,
    "ARG_OF_PERICENTER": 37.0338,
    "MEAN_ANOMALY": 323.1226,
    "EPHEMERIS_TYPE": 0,
    "CLASSIFICATION_TYPE": "U",
    "NORAD_CAT_ID": 67372,
    "ELEMENT_SET_NO": 999,
    "REV_AT_EPOCH": 2831,
    "BSTAR": 0.000069388256,
    "MEAN_MOTION_DOT": 0.00000588,
    "MEAN_MOTION_DDOT": 0
   }
  },
  {
   "norad": 67373,
   "name": "ICEYE-X64",
   "intl": "2026-004L",
   "group": "sar",
   "gcat": {
    "class": "D",
    "category": "IMG-R",
    "owner": "PUOL",
    "state": "FI"
   },
   "omm": {
    "OBJECT_NAME": "ICEYE-X64",
    "OBJECT_ID": "2026-004L",
    "EPOCH": "2026-07-20T22:46:27.277248",
    "MEAN_MOTION": 14.87995742,
    "ECCENTRICITY": 0.00068874,
    "INCLINATION": 97.8031,
    "RA_OF_ASC_NODE": 199.9802,
    "ARG_OF_PERICENTER": 38.1687,
    "MEAN_ANOMALY": 322.0016,
    "EPHEMERIS_TYPE": 0,
    "CLASSIFICATION_TYPE": "U",
    "NORAD_CAT_ID": 67373,
    "ELEMENT_SET_NO": 999,
    "REV_AT_EPOCH": 2831,
    "BSTAR": 0.000090310094,
    "MEAN_MOTION_DOT": 0.00000774,
    "MEAN_MOTION_DDOT": 0
   }
  },
  {
   "norad": 66300,
   "name": "ICEYE-X65",
   "intl": "2025-248H",
   "group": "sar",
   "gcat": {
    "class": "B",
    "category": "IMG-R",
    "owner": "SP42",
    "state": "UAE"
   },
   "omm": {
    "OBJECT_NAME": "ICEYE-X65",
    "OBJECT_ID": "2025-248H",
    "EPOCH": "2026-07-20T14:32:07.778112",
    "MEAN_MOTION": 15.07949156,
    "ECCENTRICITY": 0.0005988,
    "INCLINATION": 45.4068,
    "RA_OF_ASC_NODE": 318.4471,
    "ARG_OF_PERICENTER": 226.3769,
    "MEAN_ANOMALY": 133.6617,
    "EPHEMERIS_TYPE": 0,
    "CLASSIFICATION_TYPE": "U",
    "NORAD_CAT_ID": 66300,
    "ELEMENT_SET_NO": 999,
    "REV_AT_EPOCH": 4056,
    "BSTAR": 0.00012562,
    "MEAN_MOTION_DOT": 0.00001712,
    "MEAN_MOTION_DDOT": 0
   }
  },
  {
   "norad": 66301,
   "name": "ICEYE-X66",
   "intl": "2025-248J",
   "group": "sar",
   "gcat": {
    "class": "B",
    "category": "IMG-R",
    "owner": "SP42",
    "state": "UAE"
   },
   "omm": {
    "OBJECT_NAME": "ICEYE-X66",
    "OBJECT_ID": "2025-248J",
    "EPOCH": "2026-07-20T08:01:04.510272",
    "MEAN_MOTION": 15.09198898,
    "ECCENTRICITY": 0.00056736,
    "INCLINATION": 45.4023,
    "RA_OF_ASC_NODE": 318.9024,
    "ARG_OF_PERICENTER": 221.2592,
    "MEAN_ANOMALY": 138.7862,
    "EPHEMERIS_TYPE": 0,
    "CLASSIFICATION_TYPE": "U",
    "NORAD_CAT_ID": 66301,
    "ELEMENT_SET_NO": 999,
    "REV_AT_EPOCH": 4051,
    "BSTAR": 0.00014310579,
    "MEAN_MOTION_DOT": 0.0000206,
    "MEAN_MOTION_DDOT": 0
   }
  },
  {
   "norad": 66302,
   "name": "ICEYE-X67",
   "intl": "2025-248K",
   "group": "sar",
   "gcat": {
    "class": "B",
    "category": "IMG-R",
    "owner": "SP42",
    "state": "UAE"
   },
   "omm": {
    "OBJECT_NAME": "ICEYE-X67",
    "OBJECT_ID": "2025-248K",
    "EPOCH": "2026-07-20T08:36:42.681312",
    "MEAN_MOTION": 15.09179672,
    "ECCENTRICITY": 0.00070784,
    "INCLINATION": 45.4071,
    "RA_OF_ASC_NODE": 318.3531,
    "ARG_OF_PERICENTER": 221.9188,
    "MEAN_ANOMALY": 138.1153,
    "EPHEMERIS_TYPE": 0,
    "CLASSIFICATION_TYPE": "U",
    "NORAD_CAT_ID": 66302,
    "ELEMENT_SET_NO": 999,
    "REV_AT_EPOCH": 4053,
    "BSTAR": 0.00012540154,
    "MEAN_MOTION_DOT": 0.00001772,
    "MEAN_MOTION_DDOT": 0
   }
  },
  {
   "norad": 46496,
   "name": "ICEYE-X7",
   "intl": "2020-068L",
   "group": "sar",
   "gcat": {
    "class": "B",
    "category": "IMG-R",
    "owner": "ICEYE",
    "state": "FI"
   },
   "omm": {
    "OBJECT_NAME": "ICEYE-X7",
    "OBJECT_ID": "2020-068L",
    "EPOCH": "2026-07-20T21:54:22.038912",
    "MEAN_MOTION": 15.32170862,
    "ECCENTRICITY": 0.00067017,
    "INCLINATION": 97.7513,
    "RA_OF_ASC_NODE": 169.9923,
    "ARG_OF_PERICENTER": 190.2403,
    "MEAN_ANOMALY": 169.8702,
    "EPHEMERIS_TYPE": 0,
    "CLASSIFICATION_TYPE": "U",
    "NORAD_CAT_ID": 46496,
    "ELEMENT_SET_NO": 999,
    "REV_AT_EPOCH": 31995,
    "BSTAR": 0.00025864827,
    "MEAN_MOTION_DOT": 0.00007955,
    "MEAN_MOTION_DDOT": 0
   }
  }
 ]
}
